STARLINK-1205
1 25184C 20012G   21325.07707659  .00005914  00000-0  39624-3 0  3250
2 25184  53.0521 232.8816 0001864  66.7608  12.6982 15.06391432    15
